GOES-16
1 41866U 16071A   26063.35669706 -.00000102  00000-0  00000-0 0  9993
2 41866   0.1377  89.7852 0002555 217.0177 239.0082  1.00271047 34054
FENGYUN-4A
1 41882U 16077A   26063.82162252 -.00000366  00000-0  00000+0 0  9994
2 41882   2.0571  81.4076 0007422 135.7220   4.7929  1.00279079 33889
FOX-1B (AO-91)
1 43017U 17073E   26064.15775360  .00013614  00000-0  61716-3 0  9994
2 43017  97.4866 293.5503 0155098 327.9075  31.2782 15.10758525449677
CANX-2
1 32790U 08021H   26063.98584331  .00006394  00000-0  45751-3 0  9997
2 32790  97.8562  41.8586 0012063  44.8164 315.4034 15.04735256969137
AIST-2 (RS-43)
1 39133U 13015D   26064.10037215  .00009047  00000-0  36598-3 0  9990
2 39133  64.8679 237.3722 0024435 248.8498 111.0020 15.24981475708026
NANOSATC-BR1
1 40024U 14033Q   26064.00577243  .00021999  00000-0  80895-3 0  9990
2 40024  98.0838  87.3825 0004118 161.1057 199.0333 15.27906917638053
QB50P1
1 40025U 14033R   26063.49721693  .00016603  00000-0  85697-3 0  9994
2 40025  98.0999  67.4292 0007791 214.5862 145.4863 15.16385168637156
QB50P2
1 40032U 14033Y   26064.03577226  .00011328  00000-0  63473-3 0  9991
2 40032  98.0731  54.5726 0008151 155.9782 204.1830 15.13563218636907
PERSEUS-M2
1 40037U 14033AD  26064.14304620  .00004470  00000-0  41249-3 0  9991
2 40037  97.9872  12.6626 0010203 288.7050  71.3063 14.95137496635235
PERSEUS-M1
1 40039U 14033AF  26064.19040093  .00003712  00000-0  34272-3 0  9995
2 40039  97.9557   6.7076 0009918 285.5857  74.4268 14.95225958635097
POLYITAN-1
1 40042U 14033AJ  26063.50567694  .00032972  00000-0  11583-2 0  9993
2 40042  98.1045  80.1264 0008961 142.9202 217.2657 15.29286382637578
TIGRISAT
1 40043U 14033AK  26063.46800355  .00003648  00000-0  42735-3 0  9995
2 40043  97.7659 215.9997 0050695  59.1928 301.4262 14.84695897630083
UKUBE-1
1 40074U 14037F   26063.91784777  .00013536  00000-0  79920-3 0  9995
2 40074  98.4229  56.3944 0002752 116.7674 243.3835 15.11664851632793
DEORBITSAIL
1 40719U 15032E   26064.10647253  .00010922  00000-0  83206-3 0  9994
2 40719  97.5989 282.9496 0011762 225.2223 134.8046 15.02182248575618
HORYU-IV
1 41340U 16012D   26064.18667199  .00092418  00000-0  10078-2 0  9999
2 41340  30.9914  99.4875 0002286 102.5424 257.5484 15.61974786554405
D-SAT
1 42794U 17036AF  26063.43648161  .00011633  00000-0  56507-3 0  9993
2 42794  97.5474  42.8065 0084783 163.2909 197.1149 15.15423040474988
CORVUS-BC2
1 42846U 17042X   26063.87576653  .00006354  00000-0  44422-3 0  9999
2 42846  97.3930 229.3982 0014273 108.4821 251.7959 15.05549034471368
CORVUS-BC1
1 42847U 17042Y   26063.88297624  .00005258  00000-0  36642-3 0  9996
2 42847  97.3958 230.1474 0013234  86.6626 273.6115 15.05762301471395
APRIZESAT-5 
1 37792U 11044E   26063.75550775  .00002073  00000-0  26999-3 0  9996
2 37792  98.2403 353.8917 0052081 340.5447  19.3775 14.80838790783339
APRIZESAT-6
1 37793U 11044F   26063.27527683  .00001410  00000-0  20603-3 0  9996
2 37793  98.2423 331.6159 0044484  62.3796  52.8397 14.76739097781669
APRIZESAT-7
1 39416U 13066A   26063.42446034  .00002440  00000-0  24805-3 0  9995
2 39416  97.7590  18.2464 0035412 196.3756 163.6322 14.91263069665617
APRIZESAT-8
1 39425U 13066K   26063.67644766  .00001949  00000-0  21784-3 0  9990
2 39425  97.8112  12.6908 0044596 270.0300  89.5806 14.87406443664136
BUGSAT-1 (TITA)
1 40014U 14033E   26064.21158466  .00007880  00000-0  42829-3 0  9992
2 40014  98.0442 150.7815 0029159 173.3642 186.7980 15.14428945640098
SAUDISAT-4
1 40016U 14033G   26063.42245108  .00001289  00000-0  17674-3 0  9993
2 40016  97.7401 213.2851 0046039  55.5020 305.0527 14.79378917630582
TABLETSAT-AURORA
1 40017U 14033H   26064.19889351  .00002951  00000-0  15697-3 0  9993
2 40017  98.0343 132.2278 0011503 205.3105 154.7564 15.16089133639447
APRIZESAT-9
1 40018U 14033J   26064.15244405  .00001396  00000-0  21239-3 0  9996
2 40018  97.8873 200.0052 0066535 173.6854 186.5208 14.74060930628230
APRIZESAT-10
1 40019U 14033K   26064.10874073  .00001060  00000-0  17420-3 0  9997
2 40019  97.9471 193.4996 0077801 245.7465 113.5599 14.70741663626950
AISAT
1 40054U 14034B   26064.17068630  .00014490  00000-0  98177-3 0  9997
2 40054  98.2456 329.1500 0008478 203.7801 156.3033 15.06564289631532
COSMOS-2407 [+]
1 28380U 04028A   26063.38285099  .00000089  00000-0  75373-4 0  9992
2 28380  82.9639 152.4539 0039316 183.5159 247.7369 13.76324335 85461
COSMOS-2414 [+]
1 28521U 05002A   26063.49961109  .00000129  00000-0  95009-4 0  9990
2 28521  82.9492 122.8443 0038678 267.7133  91.9601 13.87914726 69299
COSMOS-2463 [+]
1 36519U 10017A   26064.18000490  .00000079  00000-0  70148-4 0  9993
2 36519  82.9637 326.1438 0037349  59.6663  50.0227 13.71657460793677
NOAA-15
1 25338U 98030A   26063.79088198  .00000205  00000-0  10180-3 0  9998
2 25338  98.5167  87.2001 0009159 296.2875  63.7364 14.27110331446400
NOAA-18
1 28654U 05018A   26063.79985944  .00000099  00000-0  75648-4 0  9993
2 28654  98.8164 144.9755 0015354  88.4209 271.8722 14.13709794 71560
NOAA-19
1 33591U 09005A   26064.13412344  .00000074  00000-0  63565-4 0  9995
2 33591  98.9615 134.8974 0013069 328.3053  31.7331 14.13455808879786
SARAL
1 39086U 13009A   26064.13186954  .00000166  00000-0  76754-4 0  9990
2 39086  98.5552 252.0050 0001216 195.4200 164.6947 14.32826630680700
LAPAN-A3
1 41603U 16040E   26064.19271278  .00005526  00000-0  17911-3 0  9990
2 41603  97.1476  63.8215 0011547  37.6930 322.5120 15.32330459538883
METOP-A
1 29499U 06044A   26063.78480288  .00002551  00000-0  29838-3 0  9995
2 29499  98.3248 167.3010 0175747  42.5637  58.7100 14.75556396 10053
METEOR M1
1 35865U 09049A   26063.45913550  .00000181  00000-0  99617-4 0  9994
2 35865  98.7265  26.7560 0001192 239.6624 120.4436 14.23128887854356
METOP-B
1 38771U 12049A   26064.15118323  .00000157  00000-0  91706-4 0  9994
2 38771  98.6651 117.6608 0001203 290.8485  69.2563 14.21442945698486
METEOR M2
1 40069U 14037A   26064.17830097  .00000305  00000-0  15895-3 0  9996
2 40069  98.5017  43.6559 0005651 351.3836   8.7244 14.21427073604544
CSSWE
1 38761U 12048D   26064.11850211  .00031340  00000-0  75194-3 0  9997
2 38761  64.6612  84.5817 0068338 204.3946 155.3951 15.38805186100354
MCUBED-2
1 39469U 13072H   26064.14023123  .00017545  00000-0  73198-3 0  9991
2 39469 120.4896 311.0989 0138168 262.5211  96.0143 15.15596993102043
IPEX
1 39471U 13072K   26064.03517726  .00014617  00000-0  75276-3 0  9995
2 39471 120.4648 263.2919 0160099 247.1707 111.2379 15.06332343 99536
FOX-1A (AO-85)
1 40967U 15058D   26063.76096391  .00005565  00000-0  50222-3 0  9998
2 40967  64.7737 243.3435 0129144  97.8982 263.6811 14.90304252 98004
OOREOS
1 37224U 10062C   26064.10930874  .00003237  00000-0  31434-3 0  9990
2 37224  71.9722 316.0103 0016901 264.3981  95.5262 14.93250813101100
STARS (KUKAI)
1 33498U 09002G   26064.09975822  .00006181  00000-0  57215-3 0  9997
2 33498  98.1460   7.2881 0009158 145.4050 214.7766 14.94876331922928
YUBELEINY-2 (RS-40)
1 38735U 12041C   26064.17232044  .00000045  00000-0  25625-3 0  9997
2 38735  82.4778 139.5626 0016181 294.7601  65.1795 12.42644095616926
AIST-1
1 39492U 13078C   26064.14579525  .00002889  00000-0  25667-3 0  9998
2 39492  82.4193  11.6400 0015196 266.9584  92.9898 14.95739097659694
VELOX-1
1 40057U 14034E   26064.14639697  .00010047  00000-0  88201-3 0  9995
2 40057  98.2653 323.2880 0005564 256.3621 103.6980 14.96804532631034
DX1
1 40071U 14037C   26064.19105639  .00003603  00000-0  38376-3 0  9991
2 40071  98.3761  19.6858 0005798 248.9999 111.0596 14.89598961630624
COSMOS-2491 (RS-46) [i]
1 39497U 13076E   26064.14642405  .00000011  00000-0  55097-5 0  9996
2 39497  82.4818 233.1001 0012404 319.8989  40.1174 12.43495331552322
COSMOS-2499 (RS-47) [i]
1 39765U 14028E   26064.16444987  .00000042  00000-0  12166-3 0  9991
2 39765  82.4529 322.6369 0230499 245.8089 111.8766 12.82900711551682
TRANSIT 5B-5
1   965U 64083D   26063.68449284  .00000090  00000-0  11266-3 0  9991
2   965  90.0741 202.1904 0040371 221.4107 203.2483 13.57001053 29449
EUTELSAT 1-F4 (ECS 4)
1 18351U 87078B   26062.48224150 -.00000141  00000-0  00000+0 0  9996
2 18351  13.9034 342.8620 0011534  24.9766 160.8519  0.98690192125713
BISONSAT
1 40968U 15058E   26064.15799163  .00007354  00000-0  59775-3 0  9990
2 40968  64.7748 224.4655 0117465  95.0786 266.3748 14.94988414101103
DTUSAT-2
1 40030U 14033W   26064.22973176  .00010637  00000-0  59867-3 0  9998
2 40030  98.0843  55.4949 0006542 218.6043 141.4719 15.13433114636950
ELEKTRO-L2
1 41105U 15074A   26062.86880331 -.00000128  00000-0  00000-0 0  9993
2 41105   6.4296  71.8188 0003468 237.1165 150.9510  1.00270829 37458
DOVE-3
1 39429U 13066P   26064.09638861  .00004199  00000-0  55889-3 0  9993
2 39429  97.6767 289.2223 0115196   3.0882 357.1014 14.75635599655655
FORTE
1 24920U 97047A   26063.78985472  .00000285  00000-0  13809-3 0  9990
2 24920  69.9512 249.8158 0019461  56.9864 303.3125 14.27895550483780
DMSP 5D-2 F15/USA-147
1 25991U 99067A   26063.85202971  .00000210  00000-0  12596-3 0  9997
2 25991  99.0105 101.0410 0009028 302.7297 230.2019 14.17518139355862
CASSIOPE-1
1 39265U 13055A   26064.13911100  .00041682 -54663-6  50236-3 0  9994
2 39265  80.9192 192.4112 0317024  51.3842 311.5316 15.18366752651844
D-STAR ONE PHOENIX
1 43188U 18014J   26064.18430834  .00007619  00000-0  40461-3 0  9998
2 43188  97.5459 329.8363 0009774  25.7261 334.4456 15.15563284443009
S-NET D
1 43186U 18014G   26064.18494160  .00007583  00000-0  40283-3 0  9990
2 43186  97.5445 329.6636 0009318  29.7964 330.3797 15.15556537443007
TEN-KOH
1 43677U 18084G   26064.11316701  .00003884  00000-0  29767-3 0  9993
2 43677  98.0789 252.1082 0011655 105.9473 254.3036 15.02427776400533
STARS-AO
1 43679U 18084J   26063.35472496  .00011116  00000-0  58680-3 0  9997
2 43679  98.0616 270.8832 0002712 139.2231 220.9203 15.15717103401581
